EUTELSAT 36B            
1 36101U 09065A   26151.51128483  .00000124  00000+0  00000+0 0  9993
2 36101   0.4501  80.9177 0005985 347.1672  55.4875  1.00273360 60543
INTELSAT 15 (IS-15)     
1 36106U 09067A   26151.51813152 -.00000173  00000+0  00000+0 0  9999
2 36106   0.0141 342.1671 0002507  90.4078  88.1226  1.00271937 41068
WGS F3 (USA 211)        
1 36108U 09068A   26151.51892854  .00000077  00000+0  00000+0 0  9990
2 36108   0.3463  85.9383 0000622 355.2411 224.6766  1.00269182 46421
DIRECTV 12              
1 36131U 09075A   26151.47211102 -.00000091  00000+0  00000+0 0  9997
2 36131   0.0110  84.4494 0000318 319.6880 272.0707  1.00272264 46388
BEIDOU-2 G1             
1 36287U 10001A   26151.52911885 -.00000270  00000+0  00000+0 0  9990
2 36287   4.2559  60.4627 0002855 309.2458 210.2591  1.00270808 60001
SDO                     
1 36395U 10005A   26151.33841169 -.00000080  00000+0  00000+0 0  9999
2 36395  34.6180  86.5968 0001375  41.2249 140.9040  1.00271669 59891
INTELSAT 16 (IS-16)     
1 36397U 10006A   26151.48615137 -.00000232  00000+0  00000+0 0  9991
2 36397   0.0124 326.4713 0003084 135.9761 245.3577  1.00271505 59480
EWS-G2 (GOES 15)        
1 36411U 10008A   26151.51379816  .00000032  00000+0  00000+0 0  9992
2 36411   1.2332  83.1454 0005455  33.5226  20.8090  1.00275817 59478
ECHOSTAR 14             
1 36499U 10010A   26151.51355512  .00000013  00000+0  00000+0 0  9997
2 36499   0.0279  65.4130 0002564  14.7970 234.7896  1.00271202 46380
SES-1                   
1 36516U 10016A   26151.48121133 -.00000102  00000+0  00000+0 0  9999
2 36516   0.0150 319.2116 0003005 112.7105 249.2987  1.00272444 58869
ASTRA 3B                
1 36581U 10021A   26151.50591146  .00000149  00000+0  00000+0 0  9995
2 36581   1.4275  83.7526 0004410 344.6776  26.1859  1.00270655 58708
COMSATBW-2              
1 36582U 10021B   26151.28998514  .00000101  00000+0  00000+0 0  9999
2 36582   0.0570 104.8074 0003192 339.8246 281.7351  1.00274643 58784
BEIDOU-2 G3             
1 36590U 10024A   26150.87532975 -.00000126  00000+0  00000+0 0  9998
2 36590   4.4765  61.5938 0008613 347.3999 234.1664  1.00273946 58590
BADR-5                  
1 36592U 10025A   26151.50721147  .00000166  00000+0  00000+0 0  9996
2 36592   0.0788 107.9302 0002516  73.6458 280.4585  1.00274787 53050
COMS 1                  
1 36744U 10032A   26151.43281476 -.00000334  00000+0  00000+0 0  9999
2 36744   4.7670  75.5716 0001114 342.4156 114.8976  1.00272526 50920
ARABSAT-5A              
1 36745U 10032B   26151.50721147  .00000166  00000+0  00000+0 0  9994
2 36745   0.0869  59.5575 0005317  33.6279   8.9074  1.00272275 58481
ECHOSTAR 15             
1 36792U 10034A   26151.51355479  .00000012  00000+0  00000+0 0  9990
2 36792   0.0515  83.5707 0002100 335.7115 255.8119  1.00270892 58157
BEIDOU-2 IGSO-1         
1 36828U 10036A   26151.45166473 -.00000043  00000+0  00000+0 0  9994
2 36828  54.2996 163.1104 0058769 225.1316 130.9001  1.00277274 57922
NILESAT 201             
1 36830U 10037A   26151.35730883 -.00000045  00000+0  00000+0 0  9991
2 36830   0.0550 118.9304 0004295 337.3640 274.1983  1.00271855 58202
RASCOM-QAF 1R           
1 36831U 10037B   26151.35921551  .00000031  00000+0  00000+0 0  9990
2 36831   0.0089  55.3040 0006652  11.3491 314.4234  1.00271970 58130
AEHF-1 (USA 214)        
1 36868U 10039A   26150.93679144  .00000155  00000+0  00000+0 0  9990
2 36868   8.1770  68.2685 0004834  22.8911 164.5247  1.00267201 53481
XM-5                    
1 37185U 10053A   26151.43717904 -.00000011  00000+0  00000+0 0  9994
2 37185   0.0623 274.9622 0003244 274.7821 101.3880  1.00272302 57317
BSAT-3B                 
1 37207U 10056B   26151.52298486 -.00000337  00000+0  00000+0 0  9992
2 37207   0.0654 246.7494 0001006 273.4060  26.9827  1.00271900 51933
BEIDOU-2 G4             
1 37210U 10057A   26151.50808743 -.00000101  00000+0  00000+0 0  9997
2 37210   3.6071  69.0494 0004922 205.9405 316.9342  1.00272497 57121
SKYTERRA 1              
1 37218U 10061A   26151.46617480 -.00000109  00000+0  00000+0 0  9999
2 37218   5.0904  50.8748 0003142  10.7198 253.8861  1.00271467 57024
HYLAS 1                 
1 37237U 10065A   26151.07623065  .00000099  00000+0  00000+0 0  9994
2 37237   5.6014  73.2268 0001440 320.2031 256.3951  1.00271744  6719
INTELSAT 17 (IS-17)     
1 37238U 10065B   26151.44299802  .00000011  00000+0  00000+0 0  9998
2 37238   0.0209 131.8573 0002378 297.3882  45.1756  1.00271004 53082
BEIDOU-2 IGSO-2         
1 37256U 10068A   26149.93047685 -.00000227  00000+0  00000+0 0  9992
2 37256  47.5822 272.0579 0055238 212.8050 204.6695  1.00287198 56612
EUTELSAT KA-SAT 9A      
1 37258U 10069A   26151.50296477  .00000074  00000+0  00000+0 0  9995
2 37258   0.0623  11.5754 0004083 115.2287 312.2598  1.00273202 43848
HISPASAT 30W-5          
1 37264U 10070A   26151.42401794 -.00000203  00000+0  00000+0 0  9990
2 37264   0.0618 117.8754 0005170 334.3437 279.3701  1.00272871 53018
KOREASAT 6              
1 37265U 10070B   26151.52961546  .00000000  00000+0  00000+0 0  9992
2 37265   0.0217 352.2732 0002497  83.7719 163.5259  1.00270815 56608
BEIDOU-2 IGSO-3         
1 37384U 11013A   26148.76080693 -.00000208  00000+0  00000+0 0  9990
2 37384  62.3823  40.3343 0034407 185.4964  42.4945  1.00272941 55467
INTELSAT 28 (IS-28)     
1 37392U 11016A   26151.42367127 -.00000212  00000+0  00000+0 0  9994
2 37392   1.7637  82.8260 0003891 345.7173 301.2289  1.00275212 53112
YAHSAT 1A               
1 37393U 11016B   26151.22644898  .00000000  00000+0  00000+0 0  9990
2 37393   0.0186 341.8926 0003326  96.2326 304.6155  1.00272630 42233
SBIRS GEO-1 (USA 230)   
1 37481U 11019A   26151.22636233  .00000109  00000+0  00000+0 0  9995
2 37481   4.4998  53.1327 0002108   6.8799 322.0097  1.00272294 55224
TELSTAR 14R             
1 37602U 11021A   26151.48875138 -.00000267  00000+0  00000+0 0  9996
2 37602   0.0351  71.8442 0002652 355.9252 294.1779  1.00269931 55663
GSAT-8                  
1 37605U 11022A   26151.51215148  .00000096  00000+0  00000+0 0  9992
2 37605   2.0889  82.0248 0002413 227.7368 178.6922  1.00272981 53057
ST-2                    
1 37606U 11022B   26151.51873817 -.00000199  00000+0  00000+0 0  9991
2 37606   0.0068 257.5897 0001968 182.0656  84.1235  1.00273366 55116
ZHONGXING-10            
1 37677U 11026A   26151.51821818 -.00000177  00000+0  00000+0 0  9993
2 37677   1.0052  84.3963 0003644 349.8526  86.8664  1.00272727 54833
SES-3                   
1 37748U 11035A   26151.48086468 -.00000090  00000+0  00000+0 0  9996
2 37748   1.2845  83.2688 0002972 339.2860 256.5430  1.00271790 54424
KAZSAT-2                
1 37749U 11035B   26151.44707138 -.00000185  00000+0  00000+0 0  9992
2 37749   0.0390 256.8531 0001000 227.5247  12.0448  1.00272262 53238
BEIDOU-2 IGSO-4         
1 37763U 11038A   26151.51943152  .00000047  00000+0  00000+0 0  9993
2 37763  54.5976 165.8209 0158670 231.3955 131.4280  1.00288616 54482
ASTRA 1N                
1 37775U 11041A   26151.29119846  .00000132  00000+0  00000+0 0  9995
2 37775   0.0998  48.2170 0006183  33.1311 291.4740  1.00271908 44350
BSAT-3C (JCSAT-110R)    
1 37776U 11041B   26151.52307154 -.00000338  00000+0  00000+0 0  9992
2 37776   0.0159 335.7994 0000420 149.2609  62.2357  1.00272477 50307
PAKSAT-1R               
1 37779U 11042A   26151.50877147  .00000166  00000+0  00000+0 0  9996
2 37779   0.6465  84.7607 0003552 338.1568  47.2111  1.00271525 54319
SES-2                   
1 37809U 11049A   26151.48398469 -.00000183  00000+0  00000+0 0  9999
2 37809   0.0517 121.5695 0002971 306.8176 267.8350  1.00272535 53791
ARABSAT-5C              
1 37810U 11049B   26151.50513146  .00000136  00000+0  00000+0 0  9992
2 37810   0.0516   9.5945 0003102  77.2448   4.0098  1.00270478 53876
EUTELSAT 7 WEST A       
1 37816U 11051A   26151.42826463 -.00000048  00000+0  00000+0 0  9994
2 37816   0.0705  19.9323 0004311  57.4486 318.4169  1.00271851 53701
QUETZSAT 1              
1 37826U 11054A   26151.48597802 -.00000229  00000+0  00000+0 0  9997
2 37826   0.0295  44.9127 0002948  25.2328 276.8030  1.00272154 49704
INTELSAT 18 (IS-18)     
1 37834U 11056A   26151.51850362  .00000000  00000+0  00000+0 0  9991
2 37834   0.0238 332.9882 0002211 107.3153 175.3775  1.00270665 53641
EUTELSAT 16A            
1 37836U 11057A   26151.50435146  .00000117  00000+0  00000+0 0  9991
2 37836   0.0513  19.4323 0005919  56.3886  10.7538  1.00273161  7170
VIASAT-1                
1 37843U 11059A   26151.43717979 -.00000011  00000+0  00000+0 0  9994
2 37843   0.0171 314.7086 0002553 118.2817 218.2396  1.00271508 47150
ASIASAT 7               
1 37933U 11069A   26151.52211819 -.00000321  00000+0  00000+0 0  9991
2 37933   0.0159 282.1623 0001815 133.2033 127.1345  1.00274033 44692
BEIDOU-2 IGSO-5         
1 37948U 11073A   26150.81414145 -.00000195  00000+0  00000+0 0  9999
2 37948  47.7105 271.7609 0113011 221.7343 139.6248  1.00277079 52966
LUCH-5A                 
1 37951U 11074B   26151.55183747 -.00000042  00000+0  00000+0 0  9998
2 37951   8.7129  74.0509 0002592   2.0331 178.6849  1.00269718 52886
NIGCOMSAT 1R            
1 38014U 11077A   26151.50972480  .00000158  00000+0  00000+0 0  9994
2 38014   0.0252 242.2358 0003077 113.6458 119.1564  1.00268695 52795
WGS F4 (USA 233)        
1 38070U 12003A   26151.51873817  .00000000  00000+0  00000+0 0  9997
2 38070   0.0207 334.5188 0000427 330.2747 219.3743  1.00270269 43980
SES-4                   
1 38087U 12007A   26151.35427550 -.00000155  00000+0  00000+0 0  9992
2 38087   0.0259  25.3360 0002391  54.0398 275.0325  1.00271835 52050
BEIDOU-2 G5             
1 38091U 12008A   26151.51293149  .00000068  00000+0  00000+0 0  9993
2 38091   3.5337  69.8040 0009841 275.9988 146.6246  1.00268000 52206
